{
  "type": "FeatureCollection",
  "features": [
    {
      "type": "Feature",
      "properties": {
        "norad_id": 31307,
        "name": "GALAXY 17 (G-17)",
        "group": "intelsat",
        "lat": 1.8541064056627967,
        "lon": 129.87092155106308,
        "alt_km": 35796.6671845096,
        "timestamp": "2025-12-11T08:58:26.782196+00:00",
        "meta_object_name": "GALAXY 17 (G-17)",
        "meta_object_id": "2007-016B",
        "meta_epoch": "2025-12-11T04:52:38.652960",
        "meta_mean_motion": 1.00272515,
        "meta_eccentricity": 0.0005935,
        "meta_inclination": 2.4965,
        "meta_ra_of_asc_node": 82.3008,
        "meta_arg_of_pericenter": 163.5412,
        "meta_mean_anomaly": 182.4997,
        "meta_ephemeris_type": 0,
        "meta_classification_type": "U",
        "meta_norad_cat_id": 31307,
        "meta_element_set_no": 999,
        "meta_rev_at_epoch": 6791,
        "meta_bstar": 0,
        "meta_mean_motion_dot": -2e-06,
        "meta_mean_motion_ddot": 0,
        "tle_line1": "1 31307U 07016B   25345.20322515 -.00000200  00000+0  00000+0 0  9998",
        "tle_line2": "2 31307   2.4965  82.3008 0005935 163.5412 182.4997  1.00272515 67913"
      },
      "geometry": {
        "type": "Point",
        "coordinates": [
          129.87092155106308,
          1.8541064056627967
        ]
      }
    },
    {
      "type": "Feature",
      "properties": {
        "norad_id": 31862,
        "name": "DIRECTV 10",
        "group": "intelsat",
        "lat": 0.0006140931004196574,
        "lon": 112.15608333301034,
        "alt_km": 35786.52089501992,
        "timestamp": "2025-12-11T08:58:26.782208+00:00",
        "meta_object_name": "DIRECTV 10",
        "meta_object_id": "2007-032A",
        "meta_epoch": "2025-12-10T23:19:34.847040",
        "meta_mean_motion": 1.00271412,
        "meta_eccentricity": 3.8e-05,
        "meta_inclination": 0.0021,
        "meta_ra_of_asc_node": 247.4466,
        "meta_arg_of_pericenter": 326.2855,
        "meta_mean_anomaly": 113.3201,
        "meta_ephemeris_type": 0,
        "meta_classification_type": "U",
        "meta_norad_cat_id": 31862,
        "meta_element_set_no": 999,
        "meta_rev_at_epoch": 4370,
        "meta_bstar": 0,
        "meta_mean_motion_dot": -9.8e-07,
        "meta_mean_motion_ddot": 0,
        "tle_line1": "1 31862U 07032A   25344.97193110 -.00000098  00000+0  00000+0 0  9997",
        "tle_line2": "2 31862   0.0021 247.4466 0000380 326.2855 113.3201  1.00271412 43703"
      },
      "geometry": {
        "type": "Point",
        "coordinates": [
          112.15608333301034,
          0.0006140931004196574
        ]
      }
    },
    {
      "type": "Feature",
      "properties": {
        "norad_id": 32253,
        "name": "INTELSAT 11 (IS-11)",
        "group": "intelsat",
        "lat": 0.3191746913307023,
        "lon": 86.59032129713155,
        "alt_km": 36168.71294693664,
        "timestamp": "2025-12-11T08:58:26.782220+00:00",
        "meta_object_name": "INTELSAT 11 (IS-11)",
        "meta_object_id": "2007-044B",
        "meta_epoch": "2025-12-10T14:39:34.689024",
        "meta_mean_motion": 0.99047904,
        "meta_eccentricity": 0.00090202,
        "meta_inclination": 3.0749,
        "meta_ra_of_asc_node": 80.9985,
        "meta_arg_of_pericenter": 165.1974,
        "meta_mean_anomaly": 288.3334,
        "meta_ephemeris_type": 0,
        "meta_classification_type": "U",
        "meta_norad_cat_id": 32253,
        "meta_element_set_no": 999,
        "meta_rev_at_epoch": 6658,
        "meta_bstar": 0,
        "meta_mean_motion_dot": 7.9e-07,
        "meta_mean_motion_ddot": 0,
        "tle_line1": "1 32253U 07044B   25344.61081816  .00000079  00000+0  00000+0 0  9993",
        "tle_line2": "2 32253   3.0749  80.9985 0009020 165.1974 288.3334  0.99047904 66581"
      },
      "geometry": {
        "type": "Point",
        "coordinates": [
          86.59032129713155,
          0.3191746913307023
        ]
      }
    },
    {
      "type": "Feature",
      "properties": {
        "norad_id": 32388,
        "name": "HORIZONS-2",
        "group": "intelsat",
        "lat": 1.8059853084569386,
        "lon": 141.09394104846297,
        "alt_km": 35799.90165931833,
        "timestamp": "2025-12-11T08:58:26.782232+00:00",
        "meta_object_name": "HORIZONS-2",
        "meta_object_id": "2007-063B",
        "meta_epoch": "2025-12-11T02:53:15.825120",
        "meta_mean_motion": 1.00270185,
        "meta_eccentricity": 0.0004958,
        "meta_inclination": 2.1176,
        "meta_ra_of_asc_node": 82.9766,
        "meta_arg_of_pericenter": 188.584,
        "meta_mean_anomaly": 138.0519,
        "meta_ephemeris_type": 0,
        "meta_classification_type": "U",
        "meta_norad_cat_id": 32388,
        "meta_element_set_no": 999,
        "meta_rev_at_epoch": 6592,
        "meta_bstar": 0,
        "meta_mean_motion_dot": -2.48e-06,
        "meta_mean_motion_ddot": 0,
        "tle_line1": "1 32388U 07063B   25345.12032205 -.00000248  00000+0  00000+0 0  9997",
        "tle_line2": "2 32388   2.1176  82.9766 0004958 188.5840 138.0519  1.00270185 65924"
      },
      "geometry": {
        "type": "Point",
        "coordinates": [
          141.09394104846297,
          1.8059853084569386
        ]
      }
    },
    {
      "type": "Feature",
      "properties": {
        "norad_id": 32729,
        "name": "DIRECTV 11",
        "group": "intelsat",
        "lat": 0.004973217808551247,
        "lon": 115.73822984400753,
        "alt_km": 35786.06127090623,
        "timestamp": "2025-12-11T08:58:26.782244+00:00",
        "meta_object_name": "DIRECTV 11",
        "meta_object_id": "2008-013A",
        "meta_epoch": "2025-12-10T19:55:09.427872",
        "meta_mean_motion": 1.00269537,
        "meta_eccentricity": 4.84e-05,
        "meta_inclination": 0.0266,
        "meta_ra_of_asc_node": 165.676,
        "meta_arg_of_pericenter": 20.8459,
        "meta_mean_anomaly": 92.8714,
        "meta_ephemeris_type": 0,
        "meta_classification_type": "U",
        "meta_norad_cat_id": 32729,
        "meta_element_set_no": 999,
        "meta_rev_at_epoch": 4370,
        "meta_bstar": 0,
        "meta_mean_motion_dot": -1.2e-06,
        "meta_mean_motion_ddot": 0,
        "tle_line1": "1 32729U 08013A   25344.82997023 -.00000120  00000+0  00000+0 0  9995",
        "tle_line2": "2 32729   0.0266 165.6760 0000484  20.8459  92.8714  1.00269537 43702"
      },
      "geometry": {
        "type": "Point",
        "coordinates": [
          115.73822984400753,
          0.004973217808551247
        ]
      }
    },
    {
      "type": "Feature",
      "properties": {
        "norad_id": 32951,
        "name": "GALAXY 18 (G-18)",
        "group": "intelsat",
        "lat": 0.026781627745898165,
        "lon": 91.93883753633699,
        "alt_km": 35798.71584403824,
        "timestamp": "2025-12-11T08:58:26.782256+00:00",
        "meta_object_name": "GALAXY 18 (G-18)",
        "meta_object_id": "2008-024A",
        "meta_epoch": "2025-12-10T23:13:50.397024",
        "meta_mean_motion": 1.00273115,
        "meta_eccentricity": 0.0003109,
        "meta_inclination": 0.018,
        "meta_ra_of_asc_node": 314.8239,
        "meta_arg_of_pericenter": 309.1849,
        "meta_mean_anomaly": 41.3852,
        "meta_ephemeris_type": 0,
        "meta_classification_type": "U",
        "meta_norad_cat_id": 32951,
        "meta_element_set_no": 999,
        "meta_rev_at_epoch": 4396,
        "meta_bstar": 0,
        "meta_mean_motion_dot": 3e-07,
        "meta_mean_motion_ddot": 0,
        "tle_line1": "1 32951U 08024A   25344.96794441  .00000030  00000+0  00000+0 0  9997",
        "tle_line2": "2 32951   0.0180 314.8239 0003109 309.1849  41.3852  1.00273115 43963"
      },
      "geometry": {
        "type": "Point",
        "coordinates": [
          91.93883753633699,
          0.026781627745898165
        ]
      }
    },
    {
      "type": "Feature",
      "properties": {
        "norad_id": 33153,
        "name": "INTELSAT 25 (IS-25)",
        "group": "intelsat",
        "lat": 2.179297054794919,
        "lon": -176.61345099802736,
        "alt_km": 35784.641049413134,
        "timestamp": "2025-12-11T08:58:26.782268+00:00",
        "meta_object_name": "INTELSAT 25 (IS-25)",
        "meta_object_id": "2008-034A",
        "meta_epoch": "2025-12-11T03:09:09.155808",
        "meta_mean_motion": 1.00270103,
        "meta_eccentricity": 0.0005334,
        "meta_inclination": 2.2239,
        "meta_ra_of_asc_node": 82.6668,
        "meta_arg_of_pericenter": 186.6267,
        "meta_mean_anomaly": 186.5862,
        "meta_ephemeris_type": 0,
        "meta_classification_type": "U",
        "meta_norad_cat_id": 33153,
        "meta_element_set_no": 999,
        "meta_rev_at_epoch": 6381,
        "meta_bstar": 0,
        "meta_mean_motion_dot": -2.18e-06,
        "meta_mean_motion_ddot": 0,
        "tle_line1": "1 33153U 08034A   25345.13135597 -.00000218  00000+0  00000+0 0  9993",
        "tle_line2": "2 33153   2.2239  82.6668 0005334 186.6267 186.5862  1.00270103 63810"
      },
      "geometry": {
        "type": "Point",
        "coordinates": [
          -176.61345099802736,
          2.179297054794919
        ]
      }
    }
  ]
}